[
    {
        "OBJECT_NAME": "COSMOS 2308 [GLONASS]",
        "OBJECT_ID": "1995-009B",
        "EPOCH": "2025-03-01T10:21:39.540960",
        "MEAN_MOTION": 2.1309973,
        "ECCENTRICITY": 0.0006555,
        "INCLINATION": 64.313,
        "RA_OF_ASC_NODE": 317.859,
        "ARG_OF_PERICENTER": 321.0213,
        "MEAN_ANOMALY": 209.3165,
        "EPHEMERIS_TYPE": 0,
        "CLASSIFICATION_TYPE": "U",
        "NORAD_CAT_ID": 23512,
        "ELEMENT_SET_NO": 999,
        "REV_AT_EPOCH": 23313,
        "BSTAR": 0,
        "MEAN_MOTION_DOT": -2.8e-07,
        "MEAN_MOTION_DDOT": 0
    },
    {
        "OBJECT_NAME": "COSMOS 2309 [GLONASS]",
        "OBJECT_ID": "1995-009C",
        "EPOCH": "2025-03-03T12:24:07.168896",
        "MEAN_MOTION": 2.1305193,
        "ECCENTRICITY": 0.0034837,
        "INCLINATION": 64.3194,
        "RA_OF_ASC_NODE": 318.0118,
        "ARG_OF_PERICENTER": 215.8359,
        "MEAN_ANOMALY": 335.2268,
        "EPHEMERIS_TYPE": 0,
        "CLASSIFICATION_TYPE": "U",
        "NORAD_CAT_ID": 23513,
        "ELEMENT_SET_NO": 999,
        "REV_AT_EPOCH": 23327,
        "BSTAR": 0,
        "MEAN_MOTION_DOT": -4.3e-07,
        "MEAN_MOTION_DDOT": 0
    },
    {
        "OBJECT_NAME": "COSMOS 2316 [GLONASS]",
        "OBJECT_ID": "1995-037A",
        "EPOCH": "2025-02-28T07:07:38.734176",
        "MEAN_MOTION": 2.13101313,
        "ECCENTRICITY": 0.0013484,
        "INCLINATION": 65.4737,
        "RA_OF_ASC_NODE": 218.1502,
        "ARG_OF_PERICENTER": 149.2155,
        "MEAN_ANOMALY": 212.8689,
        "EPHEMERIS_TYPE": 0,
        "CLASSIFICATION_TYPE": "U",
        "NORAD_CAT_ID": 23620,
        "ELEMENT_SET_NO": 999,
        "REV_AT_EPOCH": 23034,
        "BSTAR": 0,
        "MEAN_MOTION_DOT": 5.5e-07,
        "MEAN_MOTION_DDOT": 0
    },
    {
        "OBJECT_NAME": "COSMOS 2317 [GLONASS]",
        "OBJECT_ID": "1995-037B",
        "EPOCH": "2025-02-28T11:27:26.097696",
        "MEAN_MOTION": 2.13101543,
        "ECCENTRICITY": 0.0009564,
        "INCLINATION": 65.4837,
        "RA_OF_ASC_NODE": 218.2846,
        "ARG_OF_PERICENTER": 163.2438,
        "MEAN_ANOMALY": 202.1556,
        "EPHEMERIS_TYPE": 0,
        "CLASSIFICATION_TYPE": "U",
        "NORAD_CAT_ID": 23621,
        "ELEMENT_SET_NO": 999,
        "REV_AT_EPOCH": 23016,
        "BSTAR": 0,
        "MEAN_MOTION_DOT": 5.5e-07,
        "MEAN_MOTION_DDOT": 0
    },
    {
        "OBJECT_NAME": "COSMOS 2318 [GLONASS]",
        "OBJECT_ID": "1995-037C",
        "EPOCH": "2025-03-01T12:52:52.767840",
        "MEAN_MOTION": 2.13101675,
        "ECCENTRICITY": 0.0016928,
        "INCLINATION": 65.4754,
        "RA_OF_ASC_NODE": 218.1365,
        "ARG_OF_PERICENTER": 74.4562,
        "MEAN_ANOMALY": 338.1307,
        "EPHEMERIS_TYPE": 0,
        "CLASSIFICATION_TYPE": "U",
        "NORAD_CAT_ID": 23622,
        "ELEMENT_SET_NO": 999,
        "REV_AT_EPOCH": 23016,
        "BSTAR": 0,
        "MEAN_MOTION_DOT": 5.7e-07,
        "MEAN_MOTION_DDOT": 0
    },
    {
        "OBJECT_NAME": "COSMOS 2325 [GLONASS]",
        "OBJECT_ID": "1995-068A",
        "EPOCH": "2025-03-03T10:39:26.252640",
        "MEAN_MOTION": 2.13102571,
        "ECCENTRICITY": 0.0019764,
        "INCLINATION": 65.4779,
        "RA_OF_ASC_NODE": 218.0188,
        "ARG_OF_PERICENTER": 222.4278,
        "MEAN_ANOMALY": 140.6553,
        "EPHEMERIS_TYPE": 0,
        "CLASSIFICATION_TYPE": "U",
        "NORAD_CAT_ID": 23734,
        "ELEMENT_SET_NO": 999,
        "REV_AT_EPOCH": 22736,
        "BSTAR": 0,
        "MEAN_MOTION_DOT": 6.7e-07,
        "MEAN_MOTION_DDOT": 0
    },
    {
        "OBJECT_NAME": "COSMOS 2324 [GLONASS]",
        "OBJECT_ID": "1995-068B",
        "EPOCH": "2025-03-03T02:08:40.806816",
        "MEAN_MOTION": 2.13102548,
        "ECCENTRICITY": 0.0003703,
        "INCLINATION": 65.4752,
        "RA_OF_ASC_NODE": 217.9746,
        "ARG_OF_PERICENTER": 112.8384,
        "MEAN_ANOMALY": 247.1689,
        "EPHEMERIS_TYPE": 0,
        "CLASSIFICATION_TYPE": "U",
        "NORAD_CAT_ID": 23735,
        "ELEMENT_SET_NO": 999,
        "REV_AT_EPOCH": 22741,
        "BSTAR": 0,
        "MEAN_MOTION_DOT": 6.5e-07,
        "MEAN_MOTION_DDOT": 0
    },
    {
        "OBJECT_NAME": "COSMOS 2323 [GLONASS]",
        "OBJECT_ID": "1995-068C",
        "EPOCH": "2025-02-27T23:37:29.631936",
        "MEAN_MOTION": 2.13103406,
        "ECCENTRICITY": 0.0008746,
        "INCLINATION": 65.4665,
        "RA_OF_ASC_NODE": 217.9776,
        "ARG_OF_PERICENTER": 182.746,
        "MEAN_ANOMALY": 227.4696,
        "EPHEMERIS_TYPE": 0,
        "CLASSIFICATION_TYPE": "U",
        "NORAD_CAT_ID": 23736,
        "ELEMENT_SET_NO": 999,
        "REV_AT_EPOCH": 22710,
        "BSTAR": 0,
        "MEAN_MOTION_DOT": 5.5e-07,
        "MEAN_MOTION_DDOT": 0
    },
    {
        "OBJECT_NAME": "COSMOS 2364 [GLONASS]",
        "OBJECT_ID": "1998-077A",
        "EPOCH": "2025-03-02T08:07:51.055104",
        "MEAN_MOTION": 2.13102791,
        "ECCENTRICITY": 0.002925,
        "INCLINATION": 64.0237,
        "RA_OF_ASC_NODE": 76.7532,
        "ARG_OF_PERICENTER": 50.4992,
        "MEAN_ANOMALY": 46.0289,
        "EPHEMERIS_TYPE": 0,
        "CLASSIFICATION_TYPE": "U",
        "NORAD_CAT_ID": 25593,
        "ELEMENT_SET_NO": 999,
        "REV_AT_EPOCH": 20360,
        "BSTAR": 0,
        "MEAN_MOTION_DOT": 2.5e-07,
        "MEAN_MOTION_DDOT": 0
    },
    {
        "OBJECT_NAME": "COSMOS 2363 [GLONASS]",
        "OBJECT_ID": "1998-077B",
        "EPOCH": "2025-03-02T14:14:56.663232",
        "MEAN_MOTION": 2.13103528,
        "ECCENTRICITY": 0.0026792,
        "INCLINATION": 64.0192,
        "RA_OF_ASC_NODE": 76.6743,
        "ARG_OF_PERICENTER": 43.0841,
        "MEAN_ANOMALY": 316.2708,
        "EPHEMERIS_TYPE": 0,
        "CLASSIFICATION_TYPE": "U",
        "NORAD_CAT_ID": 25594,
        "ELEMENT_SET_NO": 999,
        "REV_AT_EPOCH": 20362,
        "BSTAR": 0,
        "MEAN_MOTION_DOT": 2.3e-07,
        "MEAN_MOTION_DDOT": 0
    },
    {
        "OBJECT_NAME": "COSMOS 2362 [GLONASS]",
        "OBJECT_ID": "1998-077C",
        "EPOCH": "2025-03-01T08:44:38.587200",
        "MEAN_MOTION": 2.13103507,
        "ECCENTRICITY": 0.0004876,
        "INCLINATION": 64.0285,
        "RA_OF_ASC_NODE": 76.8458,
        "ARG_OF_PERICENTER": 46.6684,
        "MEAN_ANOMALY": 139.2207,
        "EPHEMERIS_TYPE": 0,
        "CLASSIFICATION_TYPE": "U",
        "NORAD_CAT_ID": 25595,
        "ELEMENT_SET_NO": 999,
        "REV_AT_EPOCH": 20360,
        "BSTAR": 0,
        "MEAN_MOTION_DOT": 3.4e-07,
        "MEAN_MOTION_DDOT": 0
    },
    {
        "OBJECT_NAME": "COSMOS 2375 [GLONASS]",
        "OBJECT_ID": "2000-063A",
        "EPOCH": "2025-03-02T05:15:47.666880",
        "MEAN_MOTION": 2.13101686,
        "ECCENTRICITY": 0.0007461,
        "INCLINATION": 65.46,
        "RA_OF_ASC_NODE": 329.8792,
        "ARG_OF_PERICENTER": 15.6024,
        "MEAN_ANOMALY": 344.4702,
        "EPHEMERIS_TYPE": 0,
        "CLASSIFICATION_TYPE": "U",
        "NORAD_CAT_ID": 26564,
        "ELEMENT_SET_NO": 999,
        "REV_AT_EPOCH": 18972,
        "BSTAR": 0,
        "MEAN_MOTION_DOT": -4.9e-07,
        "MEAN_MOTION_DDOT": 0
    },
    {
        "OBJECT_NAME": "COSMOS 2376 [GLONASS]",
        "OBJECT_ID": "2000-063B",
        "EPOCH": "2025-03-01T08:25:28.488288",
        "MEAN_MOTION": 2.13102369,
        "ECCENTRICITY": 0.0005001,
        "INCLINATION": 65.465,
        "RA_OF_ASC_NODE": 329.9392,
        "ARG_OF_PERICENTER": 21.1601,
        "MEAN_ANOMALY": 94.7404,
        "EPHEMERIS_TYPE": 0,
        "CLASSIFICATION_TYPE": "U",
        "NORAD_CAT_ID": 26565,
        "ELEMENT_SET_NO": 999,
        "REV_AT_EPOCH": 18974,
        "BSTAR": 0,
        "MEAN_MOTION_DOT": -4.4e-07,
        "MEAN_MOTION_DDOT": 0
    }
]